OBJECT_NAME,OBJECT_ID,EPOCH,MEAN_MOTION,ECCENTRICITY,INCLINATION,RA_OF_ASC_NODE,ARG_OF_PERICENTER,MEAN_ANOMALY,EPHEMERIS_TYPE,CLASSIFICATION_TYPE,NORAD_CAT_ID,ELEMENT_SET_NO,REV_AT_EPOCH,BSTAR,MEAN_MOTION_DOT,MEAN_MOTION_DDOT
EYESAT A (AO-27),1993-061C,2026-06-11T11:25:16.617792,14.30940682,.00094546,98.6881,229.8913,114.5060,245.7110,0,U,22825,999,70618,.42624166E-4,.67E-6,0
ITAMSAT (IO-26),1993-061D,2026-06-11T10:58:05.034144,14.31367413,.00100698,98.6828,229.7893,99.8969,260.3351,0,U,22826,999,70649,.42795239E-4,.69E-6,0
RADIO ROSTO (RS15),1994-085A,2026-06-11T14:48:51.055776,11.27583612,.01557723,64.8187,312.2244,4.9062,355.3347,0,U,23439,999,29527,-.12785643E-3,-.47E-6,0
JAS-2 (FO-29),1996-046B,2026-06-11T13:03:39.142656,13.53273928,.03508269,98.5245,12.1894,111.0367,252.8667,0,U,24278,999,47240,.46335294E-4,.14E-6,0
FORTE,1997-047A,2026-06-11T15:08:36.854304,14.27942989,.00245643,69.9541,26.5717,284.1162,75.7231,0,U,24920,999,49789,.75180953E-4,.129E-5,0
TECHSAT 1B (GO-32),1998-043D,2026-06-11T14:03:01.523520,14.24427354,.00007338,99.0065,155.2028,176.4907,183.6276,0,U,25397,999,45053,.41012145E-4,.48E-6,0
ISS (ZARYA),1998-067A,2026-06-11T12:18:41.484960,15.49175527,.00051194,51.6332,328.1749,173.4651,186.6405,0,U,25544,999,57087,.16294015E-3,.8593E-4,0
IMAGE,2000-017A,2026-06-11T08:17:58.695936,1.68665984,.74363835,94.2241,315.2958,288.4674,8.8959,0,U,26113,999,16140,.22926254E-1,.11E-6,0
CLUSTER II-FM7 (SAMBA),2000-041A,2026-06-12T16:15:42.321888,0.44876884,.90502324,149.9129,50.0471,267.1318,359.9673,0,U,26410,999,2029,0,.5012E-4,0
CLUSTER II-FM8 (TANGO),2000-045B,2026-06-10T16:26:23.629344,0.44409835,.90534206,150.1502,50.7513,267.6711,3.1468,0,U,26464,999,2028,0,.4607E-4,0
ODIN,2001-007A,2026-06-11T09:01:09.507936,15.73864745,.0006706,97.3848,202.9521,150.0292,210.1357,0,U,26702,999,38848,.10180377E-2,.145955E-2,0
OMNI-M1,2001-026A,2026-06-11T08:49:49.290240,3.92401520,.00142781,44.8323,246.6059,52.6798,307.5021,0,U,26857,999,20534,0,0,0
PCSAT (NO-44),2001-043C,2026-06-11T13:43:13.196928,14.31954128,.0006101,67.0509,258.7958,264.4159,95.6247,0,U,26931,999,28964,.57446668E-4,.71E-6,0
PROBA-1,2001-049B,2026-06-11T15:03:23.421888,15.07474718,.00557654,97.9606,170.9651,140.5011,220.0301,0,U,26958,999,34278,.16987261E-3,.2597E-4,0
SAUDISAT 1C (SO-50),2002-058C,2026-06-11T13:24:05.207040,14.83034770,.00754033,64.5506,146.4007,263.5157,95.7360,0,U,27607,999,26362,.12536422E-3,.916E-5,0
CORIOLIS,2003-001A,2026-06-11T13:26:21.763104,14.19943314,.0013098,98.7126,169.5307,225.9098,134.1001,0,U,27640,999,21342,.65621146E-4,.96E-6,0
CUTE-1 (CO-55),2003-031E,2026-06-11T13:23:16.003104,14.24332340,.00091392,98.6735,171.1873,194.6488,165.4428,0,U,27844,999,19087,.12921213E-3,.255E-5,0
CUBESAT XI-IV (CO-57),2003-031J,2026-06-11T13:02:34.843776,14.23617902,.00086807,98.6768,170.8906,214.5229,145.5387,0,U,27848,999,19057,.11636506E-3,.221E-5,0
MOZHAETS 4 (RS22),2003-042A,2026-06-11T15:34:37.924320,14.73458673,.00100388,98.3474,346.8520,289.4379,160.3055,0,U,27939,999,21473,.17277813E-3,.1068E-4,0
